[
  {
    "ORDINAL": "1",
    "COMMENT": "GENERATED VIA SPACETRACK.ORG API",
    "ORIGINATOR": "JSPOC",
    "NORAD_CAT_ID": "4",
    "OBJECT_NAME": "EXPLORER 1",
    "OBJECT_TYPE": "PAYLOAD",
    "CLASSIFICATION_TYPE": "U",
    "INTLDES": "58001A",
    "EPOCH": "1970-03-31 00:50:24",
    "EPOCH_MICROSECONDS": "429408",
    "MEAN_MOTION": "16.27546304",
    "ECCENTRICITY": "0.0024739",
    "INCLINATION": "33.1468",
    "RA_OF_ASC_NODE": "334.6171",
    "ARG_OF_PERICENTER": "311.531",
    "MEAN_ANOMALY": "48.3249",
    "EPHEMERIS_TYPE": "0",
    "ELEMENT_SET_NO": "999",
    "REV_AT_EPOCH": "58402",
    "BSTAR": "0",
    "MEAN_MOTION_DOT": "0.07718844",
    "MEAN_MOTION_DDOT": "0",
    "FILE": "33954",
    "TLE_LINE0": "0 EXPLORER 1",
    "TLE_LINE1": "1 00004U 58001  A 70090.03500497  .07718844 +00000-0 +00000-0 0  9991",
    "TLE_LINE2": "2 00004 033.1468 334.6171 0024739 311.5310 048.3249 16.27546304584022",
    "OBJECT_ID": "1958-001A",
    "OBJECT_NUMBER": "4",
    "SEMIMAJOR_AXIS": "6577.283",
    "PERIOD": "88.476",
    "APOGEE": "215.419",
    "PERIGEE": "182.876"
  },
  {
    "ORDINAL": "1",
    "COMMENT": "GENERATED VIA SPACETRACK.ORG API",
    "ORIGINATOR": "JSPOC",
    "NORAD_CAT_ID": "5",
    "OBJECT_NAME": "VANGUARD 1",
    "OBJECT_TYPE": "PAYLOAD",
    "CLASSIFICATION_TYPE": "U",
    "INTLDES": "58002B",
    "EPOCH": "2019-03-18 11:12:31",
    "EPOCH_MICROSECONDS": "237344",
    "MEAN_MOTION": "10.84775051",
    "ECCENTRICITY": "0.1845167",
    "INCLINATION": "34.243",
    "RA_OF_ASC_NODE": "195.8224",
    "ARG_OF_PERICENTER": "96.1103",
    "MEAN_ANOMALY": "285.1651",
    "EPHEMERIS_TYPE": "0",
    "ELEMENT_SET_NO": "999",
    "REV_AT_EPOCH": "15562",
    "BSTAR": "-0.00018214",
    "MEAN_MOTION_DOT": "-1.61e-06",
    "MEAN_MOTION_DDOT": "0",
    "FILE": "2427675",
    "TLE_LINE0": "0 VANGUARD 1",
    "TLE_LINE1": "1     5U 58002B   19077.46702821 -.00000161 +00000-0 -18214-3 0  9993",
    "TLE_LINE2": "2     5 034.2430 195.8224 1845167 096.1103 285.1651 10.84775051155621",
    "OBJECT_ID": "1958-002B",
    "OBJECT_NUMBER": "5",
    "SEMIMAJOR_AXIS": "8620.028",
    "PERIOD": "132.746",
    "APOGEE": "3832.433",
    "PERIGEE": "651.354"
  },
  {
    "ORDINAL": "1",
    "COMMENT": "GENERATED VIA SPACETRACK.ORG API",
    "ORIGINATOR": "JSPOC",
    "NORAD_CAT_ID": "8",
    "OBJECT_NAME": "SPUTNIK 3",
    "OBJECT_TYPE": "PAYLOAD",
    "CLASSIFICATION_TYPE": "U",
    "INTLDES": "58004B",
    "EPOCH": "1960-04-04 03:52:47",
    "EPOCH_MICROSECONDS": "964864",
    "MEAN_MOTION": "16.28328133",
    "ECCENTRICITY": "0.0088318",
    "INCLINATION": "65.0599",
    "RA_OF_ASC_NODE": "163.5585",
    "ARG_OF_PERICENTER": "135.676",
    "MEAN_ANOMALY": "224.6847",
    "EPHEMERIS_TYPE": "0",
    "ELEMENT_SET_NO": "999",
    "REV_AT_EPOCH": "10000",
    "BSTAR": "0",
    "MEAN_MOTION_DOT": "0.0260709",
    "MEAN_MOTION_DDOT": "0",
    "FILE": "33906",
    "TLE_LINE0": "0 SPUTNIK 3",
    "TLE_LINE1": "1 00008U 58004  B 60095.16166626  .02607090 +00000-0 +00000-0 0  9993",
    "TLE_LINE2": "2 00008 065.0599 163.5585 0088318 135.6760 224.6847 16.28328133100004",
    "OBJECT_ID": "1958-004B",
    "OBJECT_NUMBER": "8",
    "SEMIMAJOR_AXIS": "6575.177",
    "PERIOD": "88.434",
    "APOGEE": "255.113",
    "PERIGEE": "138.972"
  },
  {
    "ORDINAL": "1",
    "COMMENT": "GENERATED VIA SPACETRACK.ORG API",
    "ORIGINATOR": "JSPOC",
    "NORAD_CAT_ID": "9",
    "OBJECT_NAME": "EXPLORER 4",
    "OBJECT_TYPE": "PAYLOAD",
    "CLASSIFICATION_TYPE": "U",
    "INTLDES": "58005A",
    "EPOCH": "1959-10-02 06:53:14",
    "EPOCH_MICROSECONDS": "55072",
    "MEAN_MOTION": "15.51612549",
    "ECCENTRICITY": "0.0254534",
    "INCLINATION": "50.2549",
    "RA_OF_ASC_NODE": "82.4216",
    "ARG_OF_PERICENTER": "57.7226",
    "MEAN_ANOMALY": "303.5234",
    "EPHEMERIS_TYPE": "0",
    "ELEMENT_SET_NO": "999",
    "REV_AT_EPOCH": "6070",
    "BSTAR": "0",
    "MEAN_MOTION_DOT": "0.0089285",
    "MEAN_MOTION_DDOT": "0",
    "FILE": "33905",
    "TLE_LINE0": "0 EXPLORER 4",
    "TLE_LINE1": "1 00009U 58005  A 59275.28696823  .00892850 +00000-0 +00000-0 0  9991",
    "TLE_LINE2": "2 00009 050.2549 082.4216 0254534 057.7226 303.5234 15.51612549060703",
    "OBJECT_ID": "1958-005A",
    "OBJECT_NUMBER": "9",
    "SEMIMAJOR_AXIS": "6790.158",
    "PERIOD": "92.806",
    "APOGEE": "584.856",
    "PERIGEE": "239.191"
  },
  {
    "ORDINAL": "1",
    "COMMENT": "GENERATED VIA SPACETRACK.ORG API",
    "ORIGINATOR": "JSPOC",
    "NORAD_CAT_ID": "11",
    "OBJECT_NAME": "VANGUARD 2",
    "OBJECT_TYPE": "PAYLOAD",
    "CLASSIFICATION_TYPE": "U",
    "INTLDES": "59001A",
    "EPOCH": "2019-03-18 19:10:16",
    "EPOCH_MICROSECONDS": "194720",
    "MEAN_MOTION": "11.85620099",
    "ECCENTRICITY": "0.1468393",
    "INCLINATION": "32.8725",
    "RA_OF_ASC_NODE": "329.7673",
    "ARG_OF_PERICENTER": "193.7176",
    "MEAN_ANOMALY": "161.8934",
    "EPHEMERIS_TYPE": "0",
    "ELEMENT_SET_NO": "999",
    "REV_AT_EPOCH": "56250",
    "BSTAR": "5.7129e-05",
    "MEAN_MOTION_DOT": "1.37e-06",
    "MEAN_MOTION_DDOT": "0",
    "FILE": "2427635",
    "TLE_LINE0": "0 VANGUARD 2",
    "TLE_LINE1": "1    11U 59001A   19077.79879855  .00000137  00000-0  57129-4 0  9998",
    "TLE_LINE2": "2    11  32.8725 329.7673 1468393 193.7176 161.8934 11.85620099562507",
    "OBJECT_ID": "1959-001A",
    "OBJECT_NUMBER": "11",
    "SEMIMAJOR_AXIS": "8124.029",
    "PERIOD": "121.455",
    "APOGEE": "2938.820",
    "PERIGEE": "552.967"
  },
  {
    "ORDINAL": "1",
    "COMMENT": "GENERATED VIA SPACETRACK.ORG API",
    "ORIGINATOR": "JSPOC",
    "NORAD_CAT_ID": "12",
    "OBJECT_NAME": "VANGUARD R/B",
    "OBJECT_TYPE": "ROCKET BODY",
    "CLASSIFICATION_TYPE": "U",
    "INTLDES": "59001B",
    "EPOCH": "2019-03-18 11:42:22",
    "EPOCH_MICROSECONDS": "278240",
    "MEAN_MOTION": "11.44231098",
    "ECCENTRICITY": "0.1664366",
    "INCLINATION": "32.9004",
    "RA_OF_ASC_NODE": "149.677",
    "ARG_OF_PERICENTER": "193.5569",
    "MEAN_ANOMALY": "161.4375",
    "EPHEMERIS_TYPE": "0",
    "ELEMENT_SET_NO": "999",
    "REV_AT_EPOCH": "22762",
    "BSTAR": "3.2442e-05",
    "MEAN_MOTION_DOT": "8.2e-07",
    "MEAN_MOTION_DDOT": "0",
    "FILE": "2427675",
    "TLE_LINE0": "0 VANGUARD R/B",
    "TLE_LINE1": "1    12U 59001B   19077.48775785 +.00000082 +00000-0 +32442-4 0  9992",
    "TLE_LINE2": "2    12 032.9004 149.6770 1664366 193.5569 161.4375 11.44231098227626",
    "OBJECT_ID": "1959-001B",
    "OBJECT_NUMBER": "12",
    "SEMIMAJOR_AXIS": "8318.774",
    "PERIOD": "125.848",
    "APOGEE": "3325.187",
    "PERIGEE": "556.090"
  },
  {
    "ORDINAL": "1",
    "COMMENT": "GENERATED VIA SPACETRACK.ORG API",
    "ORIGINATOR": "JSPOC",
    "NORAD_CAT_ID": "15",
    "OBJECT_NAME": "EXPLORER 6",
    "OBJECT_TYPE": "PAYLOAD",
    "CLASSIFICATION_TYPE": "U",
    "INTLDES": "59004A",
    "EPOCH": "1959-09-29 15:00:37",
    "EPOCH_MICROSECONDS": "902816",
    "MEAN_MOTION": "1.88913924",
    "ECCENTRICITY": "0.7601812",
    "INCLINATION": "46.9509",
    "RA_OF_ASC_NODE": "49.6823",
    "ARG_OF_PERICENTER": "47.2577",
    "MEAN_ANOMALY": "341.8928",
    "EPHEMERIS_TYPE": "0",
    "ELEMENT_SET_NO": "999",
    "REV_AT_EPOCH": "100",
    "BSTAR": "0",
    "MEAN_MOTION_DOT": "8.106e-05",
    "MEAN_MOTION_DDOT": "0",
    "FILE": "33905",
    "TLE_LINE0": "0 EXPLORER 6",
    "TLE_LINE1": "1 00015U 59004  A 59272.62543869  .00008106 +00000-0 +00000-0 0  9997",
    "TLE_LINE2": "2 00015 046.9509 049.6823 7601812 047.2577 341.8928 01.88913924001001",
    "OBJECT_ID": "1959-004A",
    "OBJECT_NUMBER": "15",
    "SEMIMAJOR_AXIS": "27641.364",
    "PERIOD": "762.251",
    "APOGEE": "42275.674",
    "PERIGEE": "250.783"
  },
  {
    "ORDINAL": "1",
    "COMMENT": "GENERATED VIA SPACETRACK.ORG API",
    "ORIGINATOR": "JSPOC",
    "NORAD_CAT_ID": "16",
    "OBJECT_NAME": "VANGUARD R/B",
    "OBJECT_TYPE": "ROCKET BODY",
    "CLASSIFICATION_TYPE": "U",
    "INTLDES": "58002A",
    "EPOCH": "2019-03-18 03:28:42",
    "EPOCH_MICROSECONDS": "926592",
    "MEAN_MOTION": "10.48738224",
    "ECCENTRICITY": "0.2026609",
    "INCLINATION": "34.2658",
    "RA_OF_ASC_NODE": "35.14",
    "ARG_OF_PERICENTER": "109.4855",
    "MEAN_ANOMALY": "273.4884",
    "EPHEMERIS_TYPE": "0",
    "ELEMENT_SET_NO": "999",
    "REV_AT_EPOCH": "41082",
    "BSTAR": "0.00012473",
    "MEAN_MOTION_DOT": "7.5e-07",
    "MEAN_MOTION_DDOT": "0",
    "FILE": "2427675",
    "TLE_LINE0": "0 VANGUARD R/B",
    "TLE_LINE1": "1    16U 58002A   19077.14494128 +.00000075 +00000-0 +12473-3 0  9991",
    "TLE_LINE2": "2    16 034.2658 035.1400 2026609 109.4855 273.4884 10.48738224410827",
    "OBJECT_ID": "1958-002A",
    "OBJECT_NUMBER": "16",
    "SEMIMAJOR_AXIS": "8816.382",
    "PERIOD": "137.307",
    "APOGEE": "4224.983",
    "PERIGEE": "651.511"
  },
  {
    "ORDINAL": "1",
    "COMMENT": "GENERATED VIA SPACETRACK.ORG API",
    "ORIGINATOR": "JSPOC",
    "NORAD_CAT_ID": "17",
    "OBJECT_NAME": "THOR ABLE R/B",
    "OBJECT_TYPE": "ROCKET BODY",
    "CLASSIFICATION_TYPE": "U",
    "INTLDES": "59004B",
    "EPOCH": "1961-01-08 20:25:53",
    "EPOCH_MICROSECONDS": "183999",
    "MEAN_MOTION": "2.00290678",
    "ECCENTRICITY": "0.75264",
    "INCLINATION": "47.1",
    "RA_OF_ASC_NODE": "284.32",
    "ARG_OF_PERICENTER": "171",
    "MEAN_ANOMALY": "203.9657",
    "EPHEMERIS_TYPE": "0",
    "ELEMENT_SET_NO": "999",
    "REV_AT_EPOCH": "1007",
    "BSTAR": "0",
    "MEAN_MOTION_DOT": "0.00070225",
    "MEAN_MOTION_DDOT": "0",
    "FILE": "33907",
    "TLE_LINE0": "0 THOR ABLE R/B",
    "TLE_LINE1": "1 00017U 59004  B 61008.85131000  .00070225 +00000-0 +00000-0 0  9995",
    "TLE_LINE2": "2 00017 047.1000 284.3200 7526400 171.0000 203.9657 02.00290678010078",
    "OBJECT_ID": "1959-004B",
    "OBJECT_NUMBER": "17",
    "SEMIMAJOR_AXIS": "26584.487",
    "PERIOD": "718.955",
    "APOGEE": "40214.901",
    "PERIGEE": "197.803"
  }
]
